{
  "type": "FeatureCollection",
  "features": [
    {
      "type": "Feature",
      "properties": {
        "norad_id": 34425,
        "name": "COSMOS 2251 DEB",
        "group": "cosmos-2251-debris",
        "lat": -0.2814394794035958,
        "lon": 26.41357443885256,
        "alt_km": 703.2430334274777,
        "timestamp": "2025-12-27T08:36:18.778964+00:00",
        "meta_object_name": "COSMOS 2251 DEB",
        "meta_object_id": "1993-036RS",
        "meta_epoch": "2025-12-27T03:40:49.643040",
        "meta_mean_motion": 14.62205805,
        "meta_eccentricity": 0.0024003,
        "meta_inclination": 74.0192,
        "meta_ra_of_asc_node": 26.8874,
        "meta_arg_of_pericenter": 149.1518,
        "meta_mean_anomaly": 211.1065,
        "meta_ephemeris_type": 0,
        "meta_classification_type": "U",
        "meta_norad_cat_id": 34425,
        "meta_element_set_no": 999,
        "meta_rev_at_epoch": 88951,
        "meta_bstar": 0.00062307,
        "meta_mean_motion_dot": 3.122e-05,
        "meta_mean_motion_ddot": 0,
        "tle_line1": "1 34425U 93036RS  25361.15335235  .00003122  00000+0  62307-3 0  9991",
        "tle_line2": "2 34425  74.0192  26.8874 0024003 149.1518 211.1065 14.62205805889516"
      },
      "geometry": {
        "type": "Point",
        "coordinates": [
          26.41357443885256,
          -0.2814394794035958
        ]
      }
    },
    {
      "type": "Feature",
      "properties": {
        "norad_id": 34429,
        "name": "COSMOS 2251 DEB",
        "group": "cosmos-2251-debris",
        "lat": 69.33039539355241,
        "lon": -174.27504123539978,
        "alt_km": 415.2420597780838,
        "timestamp": "2025-12-27T08:36:18.778974+00:00",
        "meta_object_name": "COSMOS 2251 DEB",
        "meta_object_id": "1993-036RW",
        "meta_epoch": "2025-12-26T10:48:12.272256",
        "meta_mean_motion": 15.47930745,
        "meta_eccentricity": 0.0014469,
        "meta_inclination": 73.9685,
        "meta_ra_of_asc_node": 138.062,
        "meta_arg_of_pericenter": 342.8367,
        "meta_mean_anomaly": 73.0284,
        "meta_ephemeris_type": 0,
        "meta_classification_type": "U",
        "meta_norad_cat_id": 34429,
        "meta_element_set_no": 999,
        "meta_rev_at_epoch": 89660,
        "meta_bstar": 0.0055636,
        "meta_mean_motion_dot": 0.00302726,
        "meta_mean_motion_ddot": 0,
        "tle_line1": "1 34429U 93036RW  25360.45014204  .00302726  00000+0  55636-2 0  9995",
        "tle_line2": "2 34429  73.9685 138.0620 0014469 342.8367  73.0284 15.47930745896607"
      },
      "geometry": {
        "type": "Point",
        "coordinates": [
          -174.27504123539978,
          69.33039539355241
        ]
      }
    },
    {
      "type": "Feature",
      "properties": {
        "norad_id": 34430,
        "name": "COSMOS 2251 DEB",
        "group": "cosmos-2251-debris",
        "lat": 36.46396619703056,
        "lon": -71.4108157461168,
        "alt_km": 731.8935143398567,
        "timestamp": "2025-12-27T08:36:18.778984+00:00",
        "meta_object_name": "COSMOS 2251 DEB",
        "meta_object_id": "1993-036RX",
        "meta_epoch": "2025-12-26T20:45:22.396320",
        "meta_mean_motion": 14.39674283,
        "meta_eccentricity": 0.00609563,
        "meta_inclination": 74.0518,
        "meta_ra_of_asc_node": 277.3003,
        "meta_arg_of_pericenter": 343.6903,
        "meta_mean_anomaly": 16.2288,
        "meta_ephemeris_type": 0,
        "meta_classification_type": "U",
        "meta_norad_cat_id": 34430,
        "meta_element_set_no": 999,
        "meta_rev_at_epoch": 88158,
        "meta_bstar": 0.00047321315,
        "meta_mean_motion_dot": 1.487e-05,
        "meta_mean_motion_ddot": 0,
        "tle_line1": "1 34430U 93036RX  25360.86484255  .00001487  00000+0  47321-3 0  9992",
        "tle_line2": "2 34430  74.0518 277.3003 0060956 343.6903  16.2288 14.39674283881581"
      },
      "geometry": {
        "type": "Point",
        "coordinates": [
          -71.4108157461168,
          36.46396619703056
        ]
      }
    },
    {
      "type": "Feature",
      "properties": {
        "norad_id": 34431,
        "name": "COSMOS 2251 DEB",
        "group": "cosmos-2251-debris",
        "lat": 73.96099053820362,
        "lon": -127.94751628613015,
        "alt_km": 752.2508711607998,
        "timestamp": "2025-12-27T08:36:18.778995+00:00",
        "meta_object_name": "COSMOS 2251 DEB",
        "meta_object_id": "1993-036RY",
        "meta_epoch": "2025-12-26T18:45:05.506272",
        "meta_mean_motion": 14.28823679,
        "meta_eccentricity": 0.00676145,
        "meta_inclination": 74.0742,
        "meta_ra_of_asc_node": 149.7823,
        "meta_arg_of_pericenter": 131.7166,
        "meta_mean_anomaly": 228.9795,
        "meta_ephemeris_type": 0,
        "meta_classification_type": "U",
        "meta_norad_cat_id": 34431,
        "meta_element_set_no": 999,
        "meta_rev_at_epoch": 87343,
        "meta_bstar": 0.00079020531,
        "meta_mean_motion_dot": 2.017e-05,
        "meta_mean_motion_ddot": 0,
        "tle_line1": "1 34431U 93036RY  25360.78131373  .00002017  00000+0  79021-3 0  9996",
        "tle_line2": "2 34431  74.0742 149.7823 0067614 131.7166 228.9795 14.28823679873431"
      },
      "geometry": {
        "type": "Point",
        "coordinates": [
          -127.94751628613015,
          73.96099053820362
        ]
      }
    },
    {
      "type": "Feature",
      "properties": {
        "norad_id": 34432,
        "name": "COSMOS 2251 DEB",
        "group": "cosmos-2251-debris",
        "lat": 3.6783280115713897,
        "lon": -104.500542176241,
        "alt_km": 761.0854924686255,
        "timestamp": "2025-12-27T08:36:18.779006+00:00",
        "meta_object_name": "COSMOS 2251 DEB",
        "meta_object_id": "1993-036RZ",
        "meta_epoch": "2025-12-27T04:29:00.465216",
        "meta_mean_motion": 14.02966665,
        "meta_eccentricity": 0.0181103,
        "meta_inclination": 73.8286,
        "meta_ra_of_asc_node": 76.8708,
        "meta_arg_of_pericenter": 157.2588,
        "meta_mean_anomaly": 231.0567,
        "meta_ephemeris_type": 0,
        "meta_classification_type": "U",
        "meta_norad_cat_id": 34432,
        "meta_element_set_no": 999,
        "meta_rev_at_epoch": 85887,
        "meta_bstar": 0.0012688,
        "meta_mean_motion_dot": 2.251e-05,
        "meta_mean_motion_ddot": 0,
        "tle_line1": "1 34432U 93036RZ  25361.18681094  .00002251  00000+0  12688-2 0  9997",
        "tle_line2": "2 34432  73.8286  76.8708 0181103 157.2588 231.0567 14.02966665858873"
      },
      "geometry": {
        "type": "Point",
        "coordinates": [
          -104.500542176241,
          3.6783280115713897
        ]
      }
    },
    {
      "type": "Feature",
      "properties": {
        "norad_id": 34433,
        "name": "COSMOS 2251 DEB",
        "group": "cosmos-2251-debris",
        "lat": 3.6512745453752875,
        "lon": 130.09557679719538,
        "alt_km": 868.7990836109793,
        "timestamp": "2025-12-27T08:36:18.779016+00:00",
        "meta_object_name": "COSMOS 2251 DEB",
        "meta_object_id": "1993-036SA",
        "meta_epoch": "2025-12-26T08:47:50.388288",
        "meta_mean_motion": 14.12917761,
        "meta_eccentricity": 0.0152904,
        "meta_inclination": 74.0102,
        "meta_ra_of_asc_node": 130.8036,
        "meta_arg_of_pericenter": 266.0105,
        "meta_mean_anomaly": 92.3544,
        "meta_ephemeris_type": 0,
        "meta_classification_type": "U",
        "meta_norad_cat_id": 34433,
        "meta_element_set_no": 999,
        "meta_rev_at_epoch": 86142,
        "meta_bstar": 0.0016773,
        "meta_mean_motion_dot": 3.465e-05,
        "meta_mean_motion_ddot": 0,
        "tle_line1": "1 34433U 93036SA  25360.36655542  .00003465  00000+0  16773-2 0  9993",
        "tle_line2": "2 34433  74.0102 130.8036 0152904 266.0105  92.3544 14.12917761861422"
      },
      "geometry": {
        "type": "Point",
        "coordinates": [
          130.09557679719538,
          3.6512745453752875
        ]
      }
    },
    {
      "type": "Feature",
      "properties": {
        "norad_id": 34434,
        "name": "COSMOS 2251 DEB",
        "group": "cosmos-2251-debris",
        "lat": 54.91760608452793,
        "lon": 141.25389633198733,
        "alt_km": 723.8282431419448,
        "timestamp": "2025-12-27T08:36:18.779026+00:00",
        "meta_object_name": "COSMOS 2251 DEB",
        "meta_object_id": "1993-036SB",
        "meta_epoch": "2025-12-27T05:04:19.231680",
        "meta_mean_motion": 13.89893828,
        "meta_eccentricity": 0.0273372,
        "meta_inclination": 74.0627,
        "meta_ra_of_asc_node": 345.5101,
        "meta_arg_of_pericenter": 119.2685,
        "meta_mean_anomaly": 345.8733,
        "meta_ephemeris_type": 0,
        "meta_classification_type": "U",
        "meta_norad_cat_id": 34434,
        "meta_element_set_no": 999,
        "meta_rev_at_epoch": 84167,
        "meta_bstar": 0.0019637,
        "meta_mean_motion_dot": 3.245e-05,
        "meta_mean_motion_ddot": 0,
        "tle_line1": "1 34434U 93036SB  25361.21133370  .00003245  00000+0  19637-2 0  9997",
        "tle_line2": "2 34434  74.0627 345.5101 0273372 119.2685 345.8733 13.89893828841679"
      },
      "geometry": {
        "type": "Point",
        "coordinates": [
          141.25389633198733,
          54.91760608452793
        ]
      }
    }
  ]
}